ASTROCAST-0403          
1 55111U 23001DG  26068.82333059  .00013959  00000+0  51317-3 0  9990
2 55111  97.5604 161.3228 0004771 338.0704  22.0330 15.28004949129377
STARLINK-36522          
1 67461U 26008S   26068.43783774  .00035412  00000+0  12884-2 0  9994
2 67461  43.0018 206.6580 0002991 301.8818  58.1742 15.27623629  9536
